CCSDS_OMM_VERS = 2.0
CREATION_DATE  = 
ORIGINATOR     = 

OBJECT_NAME    = QIANFAN-104
OBJECT_ID      = 2025-233P
CENTER_NAME    = EARTH
REF_FRAME      = TEME
TIME_SYSTEM    = UTC
MEAN_ELEMENT_THEORY = SGP/SGP4

EPOCH          = 2025-11-08T12:16:31.375200
MEAN_MOTION    = 14.26275715
ECCENTRICITY   = .0015921
INCLINATION    = 88.9955
RA_OF_ASC_NODE = 65.9705
ARG_OF_PERICENTER = 144.1287
MEAN_ANOMALY   = 216.0979

EPHEMERIS_TYPE = 0
CLASSIFICATION_TYPE = U
NORAD_CAT_ID   = 66046
ELEMENT_SET_NO = 999
REV_AT_EPOCH   = 316
BSTAR          = .3933E-3
MEAN_MOTION_DOT = .959E-5
MEAN_MOTION_DDOT = 0

CCSDS_OMM_VERS = 2.0
CREATION_DATE  = 
ORIGINATOR     = 

OBJECT_NAME    = QIANFAN-105
OBJECT_ID      = 2025-233Q
CENTER_NAME    = EARTH
REF_FRAME      = TEME
TIME_SYSTEM    = UTC
MEAN_ELEMENT_THEORY = SGP/SGP4

EPOCH          = 2025-11-08T12:15:46.871424
MEAN_MOTION    = 14.26333979
ECCENTRICITY   = .0016115
INCLINATION    = 88.9954
RA_OF_ASC_NODE = 65.9702
ARG_OF_PERICENTER = 144.2415
MEAN_ANOMALY   = 215.9861

EPHEMERIS_TYPE = 0
CLASSIFICATION_TYPE = U
NORAD_CAT_ID   = 66047
ELEMENT_SET_NO = 999
REV_AT_EPOCH   = 316
BSTAR          = .38791E-3
MEAN_MOTION_DOT = .947E-5
MEAN_MOTION_DDOT = 0

CCSDS_OMM_VERS = 2.0
CREATION_DATE  = 
ORIGINATOR     = 

OBJECT_NAME    = QIANFAN-106
OBJECT_ID      = 2025-233R
CENTER_NAME    = EARTH
REF_FRAME      = TEME
TIME_SYSTEM    = UTC
MEAN_ELEMENT_THEORY = SGP/SGP4

EPOCH          = 2025-11-08T12:15:52.337952
MEAN_MOTION    = 14.26317195
ECCENTRICITY   = .0015981
INCLINATION    = 88.9955
RA_OF_ASC_NODE = 65.9703
ARG_OF_PERICENTER = 143.9312
MEAN_ANOMALY   = 216.2963

EPHEMERIS_TYPE = 0
CLASSIFICATION_TYPE = U
NORAD_CAT_ID   = 66048
ELEMENT_SET_NO = 999
REV_AT_EPOCH   = 316
BSTAR          = .38009E-3
MEAN_MOTION_DOT = .928E-5
MEAN_MOTION_DDOT = 0

CCSDS_OMM_VERS = 2.0
CREATION_DATE  = 
ORIGINATOR     = 

OBJECT_NAME    = QIANFAN-107
OBJECT_ID      = 2025-233S
CENTER_NAME    = EARTH
REF_FRAME      = TEME
TIME_SYSTEM    = UTC
MEAN_ELEMENT_THEORY = SGP/SGP4

EPOCH          = 2025-11-08T10:34:27.755328
MEAN_MOTION    = 14.26345971
ECCENTRICITY   = .0016772
INCLINATION    = 88.9954
RA_OF_ASC_NODE = 65.9782
ARG_OF_PERICENTER = 142.3007
MEAN_ANOMALY   = 217.9365

EPHEMERIS_TYPE = 0
CLASSIFICATION_TYPE = U
NORAD_CAT_ID   = 66049
ELEMENT_SET_NO = 999
REV_AT_EPOCH   = 315
BSTAR          = .3801E-3
MEAN_MOTION_DOT = .928E-5
MEAN_MOTION_DDOT = 0

CCSDS_OMM_VERS = 2.0
CREATION_DATE  = 
ORIGINATOR     = 

OBJECT_NAME    = QIANFAN-108
OBJECT_ID      = 2025-233T
CENTER_NAME    = EARTH
REF_FRAME      = TEME
TIME_SYSTEM    = UTC
MEAN_ELEMENT_THEORY = SGP/SGP4

EPOCH          = 2025-11-08T12:15:04.047264
MEAN_MOTION    = 14.26359148
ECCENTRICITY   = .0016742
INCLINATION    = 88.9954
RA_OF_ASC_NODE = 65.9700
ARG_OF_PERICENTER = 143.7495
MEAN_ANOMALY   = 216.4836

EPHEMERIS_TYPE = 0
CLASSIFICATION_TYPE = U
NORAD_CAT_ID   = 66050
ELEMENT_SET_NO = 999
REV_AT_EPOCH   = 316
BSTAR          = .38322E-3
MEAN_MOTION_DOT = .936E-5
MEAN_MOTION_DDOT = 0

CCSDS_OMM_VERS = 2.0
CREATION_DATE  = 
ORIGINATOR     = 

OBJECT_NAME    = CZ-6A R/B
OBJECT_ID      = 2025-233U
CENTER_NAME    = EARTH
REF_FRAME      = TEME
TIME_SYSTEM    = UTC
MEAN_ELEMENT_THEORY = SGP/SGP4

EPOCH          = 2025-11-08T11:00:49.354848
MEAN_MOTION    = 14.57016766
ECCENTRICITY   = .0085443
INCLINATION    = 89.0293
RA_OF_ASC_NODE = 65.8995
ARG_OF_PERICENTER = 44.2545
MEAN_ANOMALY   = 316.5456

EPHEMERIS_TYPE = 0
CLASSIFICATION_TYPE = U
NORAD_CAT_ID   = 66051
ELEMENT_SET_NO = 999
REV_AT_EPOCH   = 322
BSTAR          = .10414E-3
MEAN_MOTION_DOT = .511E-5
MEAN_MOTION_DDOT = 0

CCSDS_OMM_VERS = 2.0
CREATION_DATE  = 
ORIGINATOR     = 

OBJECT_NAME    = 2025-234A
OBJECT_ID      = 2025-234A
CENTER_NAME    = EARTH
REF_FRAME      = TEME
TIME_SYSTEM    = UTC
MEAN_ELEMENT_THEORY = SGP/SGP4

EPOCH          = 2025-11-08T12:09:56.890080
MEAN_MOTION    = 15.22684543
ECCENTRICITY   = .0014572
INCLINATION    = 97.4605
RA_OF_ASC_NODE = 18.0185
ARG_OF_PERICENTER = 213.7719
MEAN_ANOMALY   = 146.2590

EPHEMERIS_TYPE = 0
CLASSIFICATION_TYPE = U
NORAD_CAT_ID   = 66053
ELEMENT_SET_NO = 999
REV_AT_EPOCH   = 310
BSTAR          = .1577E-2
MEAN_MOTION_DOT = .36924E-3
MEAN_MOTION_DDOT = 0

CCSDS_OMM_VERS = 2.0
CREATION_DATE  = 
ORIGINATOR     = 

OBJECT_NAME    = 2025-234B
OBJECT_ID      = 2025-234B
CENTER_NAME    = EARTH
REF_FRAME      = TEME
TIME_SYSTEM    = UTC
MEAN_ELEMENT_THEORY = SGP/SGP4

EPOCH          = 2025-11-08T10:51:22.690080
MEAN_MOTION    = 15.21257622
ECCENTRICITY   = .0014307
INCLINATION    = 97.5033
RA_OF_ASC_NODE = 18.0465
ARG_OF_PERICENTER = 205.6133
MEAN_ANOMALY   = 154.4396

EPHEMERIS_TYPE = 0
CLASSIFICATION_TYPE = U
NORAD_CAT_ID   = 66054
ELEMENT_SET_NO = 999
REV_AT_EPOCH   = 309
BSTAR          = .44294E-3
MEAN_MOTION_DOT = .9857E-4
MEAN_MOTION_DDOT = 0

CCSDS_OMM_VERS = 2.0
CREATION_DATE  = 
ORIGINATOR     = 

OBJECT_NAME    = 2025-234C
OBJECT_ID      = 2025-234C
CENTER_NAME    = EARTH
REF_FRAME      = TEME
TIME_SYSTEM    = UTC
MEAN_ELEMENT_THEORY = SGP/SGP4

EPOCH          = 2025-11-08T10:49:01.716384
MEAN_MOTION    = 15.21407288
ECCENTRICITY   = .0014968
INCLINATION    = 97.4557
RA_OF_ASC_NODE = 17.9281
ARG_OF_PERICENTER = 207.7116
MEAN_ANOMALY   = 152.3324

EPHEMERIS_TYPE = 0
CLASSIFICATION_TYPE = U
NORAD_CAT_ID   = 66055
ELEMENT_SET_NO = 999
REV_AT_EPOCH   = 309
BSTAR          = .37702E-3
MEAN_MOTION_DOT = .8418E-4
MEAN_MOTION_DDOT = 0

CCSDS_OMM_VERS = 2.0
CREATION_DATE  = 
ORIGINATOR     = 

OBJECT_NAME    = 2025-234D
OBJECT_ID      = 2025-234D
CENTER_NAME    = EARTH
REF_FRAME      = TEME
TIME_SYSTEM    = UTC
MEAN_ELEMENT_THEORY = SGP/SGP4

EPOCH          = 2025-11-08T10:45:10.643040
MEAN_MOTION    = 15.21941693
ECCENTRICITY   = .0014926
INCLINATION    = 97.4535
RA_OF_ASC_NODE = 17.9258
ARG_OF_PERICENTER = 207.2210
MEAN_ANOMALY   = 152.8246

EPHEMERIS_TYPE = 0
CLASSIFICATION_TYPE = U
NORAD_CAT_ID   = 66056
ELEMENT_SET_NO = 999
REV_AT_EPOCH   = 308
BSTAR          = .10951E-2
MEAN_MOTION_DOT = .25028E-3
MEAN_MOTION_DDOT = 0

CCSDS_OMM_VERS = 2.0
CREATION_DATE  = 
ORIGINATOR     = 

OBJECT_NAME    = 2025-234E
OBJECT_ID      = 2025-234E
CENTER_NAME    = EARTH
REF_FRAME      = TEME
TIME_SYSTEM    = UTC
MEAN_ELEMENT_THEORY = SGP/SGP4

EPOCH          = 2025-11-07T22:07:20.507232
MEAN_MOTION    = 15.34034227
ECCENTRICITY   = .0013477
INCLINATION    = 97.4830
RA_OF_ASC_NODE = 17.6456
ARG_OF_PERICENTER = 228.4016
MEAN_ANOMALY   = 131.6072

EPHEMERIS_TYPE = 0
CLASSIFICATION_TYPE = U
NORAD_CAT_ID   = 66057
ELEMENT_SET_NO = 999
REV_AT_EPOCH   = 302
BSTAR          = .11834456E-1
MEAN_MOTION_DOT = .411763E-2
MEAN_MOTION_DDOT = 0

CCSDS_OMM_VERS = 2.0
CREATION_DATE  = 
ORIGINATOR     = 

OBJECT_NAME    = STARLINK-35552
OBJECT_ID      = 2025-235A
CENTER_NAME    = EARTH
REF_FRAME      = TEME
TIME_SYSTEM    = UTC
MEAN_ELEMENT_THEORY = SGP/SGP4

EPOCH          = 2025-11-08T12:00:00.998784
MEAN_MOTION    = 15.72288480
ECCENTRICITY   = .0001801
INCLINATION    = 53.1567
RA_OF_ASC_NODE = 90.5606
ARG_OF_PERICENTER = 21.4885
MEAN_ANOMALY   = 320.7073

EPHEMERIS_TYPE = 0
CLASSIFICATION_TYPE = U
NORAD_CAT_ID   = 66058
ELEMENT_SET_NO = 999
REV_AT_EPOCH   = 437
BSTAR          = .75555E-3
MEAN_MOTION_DOT = .102649E-2
MEAN_MOTION_DDOT = 0

