QIANFAN-104             
1 66046U 25233P   25312.51147425  .00000959  00000+0  39330-3 0  9992
2 66046  88.9955  65.9705 0015921 144.1287 216.0979 14.26275715  3169
QIANFAN-105             
1 66047U 25233Q   25312.51095916  .00000947  00000+0  38791-3 0  9997
2 66047  88.9954  65.9702 0016115 144.2415 215.9861 14.26333979  3161
QIANFAN-106             
1 66048U 25233R   25312.51102243  .00000928  00000+0  38009-3 0  9991
2 66048  88.9955  65.9703 0015981 143.9312 216.2963 14.26317195  3165
QIANFAN-107             
1 66049U 25233S   25312.44059902  .00000928  00000+0  38010-3 0  9999
2 66049  88.9954  65.9782 0016772 142.3007 217.9365 14.26345971  3151
QIANFAN-108             
1 66050U 25233T   25312.51046351  .00000936  00000+0  38322-3 0  9998
2 66050  88.9954  65.9700 0016742 143.7495 216.4836 14.26359148  3165
CZ-6A R/B               
1 66051U 25233U   25312.45890457  .00000511  00000+0  10414-3 0  9997
2 66051  89.0293  65.8995 0085443  44.2545 316.5456 14.57016766  3221
2025-234A               
1 66053U 25234A   25312.50690845  .00036924  00000+0  15770-2 0  9991
2 66053  97.4605  18.0185 0014572 213.7719 146.2590 15.22684543  3106
2025-234B               
1 66054U 25234B   25312.45234595  .00009857  00000+0  44294-3 0  9991
2 66054  97.5033  18.0465 0014307 205.6133 154.4396 15.21257622  3096
2025-234C               
1 66055U 25234C   25312.45071431  .00008418  00000+0  37702-3 0  9998
2 66055  97.4557  17.9281 0014968 207.7116 152.3324 15.21407288  3091
2025-234D               
1 66056U 25234D   25312.44803985  .00025028  00000+0  10951-2 0  9997
2 66056  97.4535  17.9258 0014926 207.2210 152.8246 15.21941693  3086
2025-234E               
1 66057U 25234E   25311.92176513  .00411763  00000+0  11834-1 0  9995
2 66057  97.4830  17.6456 0013477 228.4016 131.6072 15.34034227  3027
STARLINK-35552          
1 66058U 25235A   25312.50001156  .00102649  00000+0  75555-3 0  9994
2 66058  53.1567  90.5606 0001801  21.4885 320.7073 15.72288480  4379
